Corps du système solaire : 67P (Comet)
Époque : 2023-02-21T09:26:14.140 / +1000 / 3 Jour / UTC
Système de coordonnées (ICRF) : Héliocentre – Écliptique – Astrométrique J2000 – Cartésiennes
Options : INPOP19a – IMCCE – SAI
Éphémérides de position
Colonnes :
1: Date (undefined)
2: px (au)
3: py (au)
4: pz (au)
5: Dobs (au)
6: Phase (deg)
7: VMag (mag)
8: vx (au/d)
9: vy (au/d)
10: vz (au/d)
11: RV (km/s)
$$SOE
2460764.893219213 -2.721028988695 -4.996989283914 -0.163307635023 5.692149861391 0 21.58  0.003943051933 -0.001674153467 -0.000249161585  -0.7065392
2460767.893219213 -2.709180172935 -5.001975690644 -0.164053940252 5.690899025157 0 21.58  0.003956131309 -0.001650102873 -0.000248373337   -0.737305
2460770.893219213 -2.697292190517 -5.006889885045  -0.16479787459 5.689594873228 0 21.58  0.003969162174 -0.001626011639 -0.000247580941  -0.7680815
2460773.893219213 -2.685365186851 -5.011731744673  -0.16553942557 5.688237386813 0 21.57  0.003982144605 -0.001601879423 -0.000246784383   -0.798869
2460776.893219213 -2.673399307119 -5.016501146044 -0.166278580681 5.686826546498 0 21.57  0.003995078676 -0.001577705877 -0.000245983645  -0.8296679
2460779.893219213  -2.66139469628 -5.021197964622 -0.167015327358 5.685362332243 0 21.57  0.004007964461 -0.001553490646 -0.000245178712  -0.8604785
2460782.893219213 -2.649351499086 -5.025822074804 -0.167749652988 5.683844723369 0 21.57  0.004020802026 -0.001529233374 -0.000244369565  -0.8913012
2460785.893219213 -2.637269860085 -5.030373349914 -0.168481544903 5.682273698566 0 21.57  0.004033591439 -0.001504933702 -0.000243556187  -0.9221364
2460788.893219213 -2.625149923635   -5.0348516622 -0.169210990382 5.680649235887 0 21.57   0.00404633276 -0.001480591271 -0.000242738559  -0.9529845
2460791.893219213 -2.612991833912 -5.039256882822 -0.169937976649 5.678971312753 0 21.56  0.004059026049 -0.001456205718 -0.000241916664  -0.9838458
2460794.893219213 -2.600795734928 -5.043588881861  -0.17066249087 5.677239905961 0 21.56  0.004071671358 -0.001431776682 -0.000241090482  -1.0147206
2460797.893219213 -2.588561770531 -5.047847528311 -0.171384520157 5.675454991688 0 21.56   0.00408426874 -0.001407303804 -0.000240259993  -1.0456093
2460800.893219213 -2.576290084428 -5.052032690091 -0.172104051561 5.673616545505 0 21.56  0.004096818241 -0.001382786725  -0.00023942518  -1.0765123
2460803.893219213 -2.563980820181 -5.056144234054  -0.17282107208 5.671724542392 0 21.56  0.004109319907 -0.001358225093 -0.000238586023  -1.1074299
2460806.893219213 -2.551634121224 -5.060182026006 -0.173535568654 5.669778956758 0 21.55  0.004121773782 -0.001333618563 -0.000237742505  -1.1383625
2460809.893219213 -2.539250130845 -5.064145930733 -0.174247528173 5.667779762467 0 21.55  0.004134179917 -0.001308966802 -0.000236894608  -1.1693102
2460812.893219213 -2.526828992173 -5.068035812041 -0.174956937479 5.665726932865 0 21.55  0.004146538373 -0.001284269487 -0.000236042318  -1.2002735
2460815.893219213 -2.514370848111 -5.071851532788 -0.175663783377 5.663620440784 0 21.55  0.004158849238  -0.00125952631 -0.000235185626  -1.2312526
2460818.893219213 -2.501875841238 -5.075592954906 -0.176368052647 5.661460258525 0 21.54  0.004171112645 -0.001234736958 -0.000234324524  -1.2622479
2460821.893219213 -2.489344113658  -5.07925993935 -0.177069732052 5.659246357749 0 21.54  0.004183328779 -0.001209901086 -0.000233459007  -1.2932597
2460824.893219213 -2.476775806847 -5.082852345936 -0.177768808339 5.656978709275 0 21.54  0.004195497866 -0.001185018272  -0.00023258907  -1.3242887
2460827.893219213 -2.464171061614 -5.086370033056 -0.178465268224 5.654657282809 0 21.54  0.004207620114 -0.001160087988 -0.000231714695  -1.3553355
2460830.893219213  -2.45153001825  -5.08981285738 -0.179159098351 5.652282046753 0 21.53  0.004219695648 -0.001135109622 -0.000230835851  -1.3864009
2460833.893219213 -2.438852816861 -5.093180673709 -0.179850285251 5.649852968216 0 21.53  0.004231724468 -0.001110082557 -0.000229952496  -1.4174856
2460836.893219213 -2.426139597696 -5.096473335079 -0.180538815322 5.647370013247 0 21.53  0.004243706489 -0.001085006239 -0.000229064585  -1.4485902
2460839.893219213 -2.413390501311    -5.099690693 -0.181224674833 5.644833147123 0 21.52  0.004255641602 -0.001059880204 -0.000228172078   -1.479715
2460842.893219213 -2.400605668554 -5.102832597684 -0.181907849947 5.642242334547 0 21.52  0.004267529725 -0.001034704046 -0.000227274944  -1.5108603
2460845.893219213 -2.387785240457 -5.105898898174  -0.18258832674 5.639597539716 0 21.52  0.004279370817 -0.001009477385 -0.000226373155  -1.5420264
2460848.893219213 -2.374929358127 -5.108889442375 -0.183266091216 5.636898726312 0 21.52  0.004291164869  -0.00098419984 -0.000225466691  -1.5732136
2460851.893219213 -2.362038162659 -5.111804077039 -0.183941129314 5.634145857443 0 21.51  0.004302911895 -0.000958871021 -0.000224555529  -1.6044222
2460854.893219213 -2.349111795086 -5.114642647714 -0.184613426911 5.631338895593 0 21.51  0.004314611922 -0.000933490518  -0.00022363965  -1.6356527
2460857.893219213 -2.336150396351 -5.117404998703 -0.185282969819  5.62847780257 0 21.51   0.00432626498 -0.000908057909  -0.00022271903  -1.6669055
2460860.893219213 -2.323154107308 -5.120090973017 -0.185949743787  5.62556253947 0  21.5  0.004337871101 -0.000882572756  -0.00022179365  -1.6981809
2460863.893219213 -2.310123068714 -5.122700412337 -0.186613734495 5.622593066643 0  21.5  0.004349430315 -0.000857034609 -0.000220863484  -1.7294794
2460866.893219213 -2.297057421248 -5.125233156977 -0.187274927555 5.619569343675 0  21.5  0.004360942645 -0.000831443009 -0.000219928511  -1.7608014
2460869.893219213 -2.283957305514 -5.127689045858 -0.187933308504 5.616491329368 0 21.49  0.004372408115 -0.000805797486 -0.000218988705  -1.7921474
2460872.893219213 -2.270822862063 -5.130067916479 -0.188588862809 5.613358981727 0 21.49   0.00438382674 -0.000780097562 -0.000218044042   -1.823518
2460875.893219213 -2.257654231406 -5.132369604896 -0.189241575856  5.61017225795 0 21.48  0.004395198531 -0.000754342751 -0.000217094496  -1.8549134
2460878.893219213 -2.244451554031 -5.134593945696 -0.189891432958 5.606931114422 0 21.48  0.004406523491 -0.000728532563  -0.00021614004  -1.8863342
2460881.893219213 -2.231214970422 -5.136740771984 -0.190538419343 5.603635506709 0 21.48  0.004417801618   -0.0007026665 -0.000215180647  -1.9177809
2460884.893219213 -2.217944621082 -5.138809915365 -0.191182520161 5.600285389555 0 21.47  0.004429032905  -0.00067674406 -0.000214216291   -1.949254
2460887.893219213 -2.204640646549 -5.140801205934 -0.191823720478 5.596880716889 0 21.47  0.004440217334 -0.000650764737 -0.000213246943  -1.9807539
2460890.893219213 -2.191303187417  -5.14271447227 -0.192462005276 5.593421441833 0 21.47  0.004451354885 -0.000624728028 -0.000212272575   -2.012281
2460893.893219213 -2.177932384356  -5.14454954144 -0.193097359453 5.589907516711 0 21.46  0.004462445529 -0.000598633429  -0.00021129316  -2.0438359
2460896.893219213  -2.16452837812 -5.146306239006 -0.193729767827 5.586338893073 0 21.46  0.004473489239 -0.000572480442  -0.00021030867   -2.075419
2460899.893219213 -2.151091309544 -5.147984389055 -0.194359215136  5.58271552172 0 21.45   0.00448448599 -0.000546268579 -0.000209319082  -2.1070306
2460902.893219213 -2.137621319512 -5.149583814218 -0.194985686047 5.579037352721 0 21.45  0.004495435777  -0.00051999736 -0.000208324371  -2.1386713
2460905.893219213  -2.12411854888 -5.151104335692 -0.195609165165 5.575304335404 0 21.44  0.004506338625 -0.000493666305 -0.000207324521  -2.1703415
2460908.893219213  -2.11058313836 -5.152545773204 -0.196229637045 5.571516418297 0 21.44  0.004517194608  -0.00046727491 -0.000206319514  -2.2020416
2460911.893219213 -2.097015228372 -5.153907944886 -0.196847086192 5.567673548955 0 21.44  0.004528003844 -0.000440822605 -0.000205309334  -2.2337723
2460914.893219213 -2.083414958968 -5.155190667012 -0.197461497053 5.563775673705 0 21.43  0.004538766449  -0.00041430872 -0.000204293956  -2.2655343
2460917.893219213 -2.069782469932 -5.156393753678 -0.198072853981 5.559822737398 0 21.43  0.004549482471 -0.000387732479 -0.000203273343  -2.2973287
2460920.893219213 -2.056117901087 -5.157517016587 -0.198681141191 5.555814683322 0 21.42  0.004560151835 -0.000361093075 -0.000202247441  -2.3291562
2460923.893219213 -2.042421392658 -5.158560265065 -0.199286342729 5.551751453361 0 21.42  0.004570774355 -0.000334389744 -0.000201216192  -2.3610176
2460926.893219213  -2.02869308552 -5.159523306275  -0.19988844247 5.547632988281 0 21.41  0.004581349796 -0.000307621807 -0.000200179541  -2.3929134
2460929.893219213 -2.014933121246 -5.160405945455 -0.200487424133 5.543459227974 0 21.41  0.004591877933 -0.000280788657  -0.00019913744  -2.4248442
2460932.893219213 -2.001141642038 -5.161207986082 -0.201083271303 5.539230111585 0  21.4  0.004602358573  -0.00025388972 -0.000198089847  -2.4568102
2460935.893219213 -1.987318790628  -5.16192922993 -0.201675967447 5.534945577531 0  21.4  0.004612791556 -0.000226924431 -0.000197036724  -2.4888121
2460938.893219213 -1.973464710194 -5.162569477063  -0.20226549592 5.530605563474 0 21.39  0.004623176742 -0.000199892214 -0.000195978036  -2.5208501
2460941.893219213 -1.959579544318 -5.163128525798 -0.202851839971  5.52621000627 0 21.39  0.004633513999 -0.000172792479 -0.000194913746  -2.5529248
2460944.893219213 -1.945663436971 -5.163606172657 -0.203434982737 5.521758841933 0 21.38    0.0046438032 -0.000145624621 -0.000193843817  -2.5850366
2460947.893219213  -1.93171653251 -5.164002212325 -0.204014907248 5.517252005596 0 21.38  0.004654044212  -0.00011838802 -0.000192768212  -2.6171862
2460950.893219213 -1.917738975699 -5.164316437615 -0.204591596416 5.512689431489 0 21.37  0.004664236899 -0.000091082047 -0.000191686893   -2.649374
2460953.893219213 -1.903730911723 -5.164548639431 -0.205165033036 5.508071052926 0 21.36  0.004674381115 -0.000063706062 -0.000190599819  -2.6816005
$$EOE
